NORAD_CAT_ID,OBJECT_NAME,OBJECT_TYPE,EPOCH,MEAN_MOTION,ECCENTRICITY,INCLINATION,RA_OF_ASC_NODE,ARG_OF_PERICENTER,MEAN_ANOMALY,BSTAR,MEAN_MOTION_DOT,MEAN_MOTION_DDOT,TLE_LINE0,TLE_LINE1,TLE_LINE2,SEMIMAJOR_AXIS,PERIOD,APOGEE,PERIGEE,DECAYED
51969.0,STARLINK-3680,PAYLOAD,2022-07-07 22:00:00,15.08854403,0.0001818,53.2165,288.0689,44.4205,132.9328,-0.001847,-0.00029575,0.0,0 STARLINK-3680,1 51969U 22025P   22188.91667824 -.00029575  00000-0 -18470-2 0  9997,2 51969  53.2165 288.0689 0001818  44.4205 132.9328 15.08854403 19907,6917.8359999999975,95.437,540.9590000000002,538.444,0.0
51969.0,STARLINK-3680,PAYLOAD,2022-07-08 03:34:35,15.08850398,0.0001805,53.2176,287.0254,50.7289,309.3863,0.00016047,2.267e-05,0.0,0 STARLINK-3680,1 51969U 22025P   22189.14902031  .00002267  00000-0  16047-3 0  9991,2 51969  53.2176 287.0254 0001805  50.7289 309.3863 15.08850398 19930,6917.849,95.437,540.962,538.465,0.0
51969.0,STARLINK-3680,PAYLOAD,2022-07-08 13:06:53,15.08858668,0.000175,53.2176,285.2409,51.4687,308.6461,0.00022346,3.272e-05,0.0,0 STARLINK-3680,1 51969U 22025P   22189.54645167  .00003272  00000-0  22346-3 0  9995,2 51969  53.2176 285.2409 0001750  51.4687 308.6461 15.08858668 18888,6917.823,95.436,540.899,538.4780000000002,0.0
51969.0,STARLINK-3680,PAYLOAD,2022-07-08 22:00:01,15.0889485,0.0001716,53.2167,283.5789,40.1399,172.162,-0.0035315,-0.00056139,0.0,0 STARLINK-3680,1 51969U 22025P   22189.91668981 -.00056139  00000-0 -35315-2 0  9996,2 51969  53.2167 283.5789 0001716  40.1399 172.1620 15.08894850 20053,6917.7130000000025,95.434,540.765,538.391,0.0
51969.0,STARLINK-3680,PAYLOAD,2022-07-09 14:00:01,15.08812326,0.0001785,53.2171,280.587,39.72,195.73,-0.0044226,-0.00069939,0.0,0 STARLINK-3680,1 51969U 22025P   22190.58334491 -.00069939  00000-0 -44226-2 0  9990,2 51969  53.2171 280.5870 0001785  39.7200 195.7300 15.08812326  1308,6917.965,95.439,541.065,538.595,0.0
51969.0,STARLINK-3680,PAYLOAD,2022-07-09 20:00:01,15.08765913,0.0001778,53.2168,279.4643,39.283,114.8208,-0.00071305,-0.00011595,0.0,0 STARLINK-3680,1 51969U 22025P   22190.83334491 -.00011595  00000-0 -71305-3 0  9992,2 51969  53.2168 279.4643 0001778  39.2830 114.8208 15.08765913  1303,6918.107,95.442,541.202,538.742,0.0
51969.0,STARLINK-3680,PAYLOAD,2022-07-10 06:00:00,15.08787498,0.0001744,53.2172,277.5929,51.2187,207.2562,0.0032158,0.0005119,0.0,0 STARLINK-3680,1 51969U 22025P   22191.25001157  .00051190  00000-0  32158-2 0  9994,2 51969  53.2172 277.5929 0001744  51.2187 207.2562 15.08787498 20253,6918.041,95.441,541.112,538.6990000000002,0.0
51969.0,STARLINK-3680,PAYLOAD,2022-07-10 14:00:01,15.08802567,0.0001957,53.2171,276.0984,46.0502,223.9765,0.0010667,0.00016712,0.0,0 STARLINK-3680,1 51969U 22025P   22191.58334491  .00016712  00000-0  10667-2 0  9992,2 51969  53.2171 276.0984 0001957  46.0502 223.9765 15.08802567  1306,6917.995,95.44,541.214,538.506,0.0
51969.0,STARLINK-3680,PAYLOAD,2022-07-10 22:00:00,15.08831467,0.0001829,53.2168,274.601,47.0753,234.5066,-0.0019138,-0.00030611,0.0,0 STARLINK-3680,1 51969U 22025P   22191.91667824 -.00030611  00000-0 -19138-2 0  9996,2 51969  53.2168 274.6010 0001829  47.0753 234.5066 15.08831467 20352,6917.906,95.438,541.0369999999998,538.506,0.0
51969.0,STARLINK-3680,PAYLOAD,2022-07-11 06:00:00,15.0883052,0.0001754,53.217,273.1043,52.4208,240.738,0.00094346,0.00014755,0.0,0 STARLINK-3680,1 51969U 22025P   22192.25001157  .00014755  00000-0  94346-3 0  9999,2 51969  53.2170 273.1043 0001754  52.4208 240.7380 15.08830520 20400,6917.909000000002,95.438,540.988,538.561,0.0
51969.0,STARLINK-3680,PAYLOAD,2022-07-11 14:00:01,15.08821566,0.000195,53.2167,271.6098,46.5681,258.1818,0.0015916,0.0002512,0.0,0 STARLINK-3680,1 51969U 22025P   22192.58334491  .00025120  00000-0  15916-2 0  9998,2 51969  53.2167 271.6098 0001950  46.5681 258.1818 15.08821566  1303,6917.937,95.439,541.151,538.453,0.0
51969.0,STARLINK-3680,PAYLOAD,2022-07-11 22:00:00,15.08851335,0.0001829,53.2163,270.1122,48.1381,268.1939,-0.0014667,-0.00023562,0.0,0 STARLINK-3680,1 51969U 22025P   22192.91667824 -.00023562  00000-0 -14667-2 0  9996,2 51969  53.2163 270.1122 0001829  48.1381 268.1939 15.08851335  1303,6917.846,95.437,540.976,538.445,0.0
51969.0,STARLINK-3680,PAYLOAD,2022-07-12 06:00:00,15.08853368,0.0001779,53.2163,268.6156,52.8146,275.1132,0.00050384,7.743e-05,0.0,0 STARLINK-3680,1 51969U 22025P   22193.25001157  .00007743  00000-0  50384-3 0  9993,2 51969  53.2163 268.6156 0001779  52.8146 275.1132 15.08853368 20556,6917.84,95.437,540.935,538.474,0.0
51969.0,STARLINK-3680,PAYLOAD,2022-07-12 14:00:01,15.08846783,0.0001976,53.216,267.1211,46.827,292.7288,0.0023084,0.00036649,0.0,0 STARLINK-3680,1 51969U 22025P   22193.58334491  .00036649  00000-0  23084-2 0  9992,2 51969  53.2160 267.1211 0001976  46.8270 292.7288 15.08846783  1301,6917.86,95.437,541.092,538.3580000000002,0.0
51969.0,STARLINK-3680,PAYLOAD,2022-07-12 22:00:00,15.08886628,0.0001829,53.2156,265.6232,47.6998,303.4787,-0.0010767,-0.00017405,0.0,0 STARLINK-3680,1 51969U 22025P   22193.91667824 -.00017405  00000-0 -10767-2 0  9993,2 51969  53.2156 265.6232 0001829  47.6998 303.4787 15.08886628  1301,6917.738,95.435,540.868,538.3380000000002,0.0
51969.0,STARLINK-3680,PAYLOAD,2022-07-13 14:00:01,15.08821682,0.0001869,53.2155,262.6319,41.7488,332.7030000000001,0.0014677,0.00023136,0.0,0 STARLINK-3680,1 51969U 22025P   22194.58334491  .00023136  00000-0  14677-2 0  9998,2 51969  53.2155 262.6319 0001869  41.7488 332.7030 15.08821682  1301,6917.936,95.439,541.094,538.508,0.0
51969.0,STARLINK-3680,PAYLOAD,2022-07-13 22:00:00,15.08826764,0.000179,53.2153,261.134,44.7381,341.2977,-0.0015225,-0.00024428,0.0,0 STARLINK-3680,1 51969U 22025P   22194.91667824 -.00024428  00000-0 -15225-2 0  9991,2 51969  53.2153 261.1340 0001790  44.7381 341.2977 15.08826764  1306,6917.920999999999,95.438,541.024,538.548,0.0
51969.0,STARLINK-3680,PAYLOAD,2022-07-14 08:00:01,15.08837181,0.0001876,53.2151,259.264,46.8458,83.6456,-0.0014103,-0.00022662,0.0,0 STARLINK-3680,1 51969U 22025P   22195.33334491 -.00022662  00000-0 -14103-2 0  9991,2 51969  53.2151 259.2640 0001876  46.8458  83.6456 15.08837181 20875,6917.889,95.438,541.052,538.456,0.0
51969.0,STARLINK-3680,PAYLOAD,2022-07-14 14:00:01,15.0880256,0.0002001,53.2152,258.1429,43.1826,5.9964,0.0027128,0.00043107,0.0,0 STARLINK-3680,1 51969U 22025P   22195.58334491  .00043107  00000-0  27128-2 0  9994,2 51969  53.2152 258.1429 0002001  43.1826   5.9964 15.08802560  1300,6917.995,95.44,541.244,538.476,0.0
51969.0,STARLINK-3680,PAYLOAD,2022-07-14 22:00:00,15.08831206,0.0001874,53.2152,256.6448,45.6219,15.130999999999998,1.1137e-05,-1.11e-06,0.0,0 STARLINK-3680,1 51969U 22025P   22195.91667824 -.00000111  00000-0  11137-4 0  9994,2 51969  53.2152 256.6448 0001874  45.6219  15.1310 15.08831206  1301,6917.906999999997,95.438,541.069,538.476,0.0
51969.0,STARLINK-3680,PAYLOAD,2022-07-15 06:00:00,15.08851547,0.0001908,53.2152,255.1485,47.9104,24.4205,-0.00068954,-0.00011249,0.0,0 STARLINK-3680,1 51969U 22025P   22196.25001157 -.00011249  00000-0 -68954-3 0  9996,2 51969  53.2152 255.1485 0001908  47.9104  24.4205 15.08851547 21007,6917.845,95.437,541.03,538.39,0.0
51969.0,STARLINK-3680,PAYLOAD,2022-07-15 14:00:01,15.08822417,0.0002076,53.2152,253.6536,42.9143,41.0269,0.0031109,0.00049547,0.0,0 STARLINK-3680,1 51969U 22025P   22196.58334491  .00049547  00000-0  31109-2 0  9993,2 51969  53.2152 253.6536 0002076  42.9143  41.0269 15.08822417  1302,6917.934,95.439,541.235,538.363,0.0
51969.0,STARLINK-3680,PAYLOAD,2022-07-15 22:00:00,15.08852891,0.0001948,53.2153,252.1554,46.5249,49.0175,1.1101e-05,-1.11e-06,0.0,0 STARLINK-3680,1 51969U 22025P   22196.91667824 -.00000111  00000-0  11101-4 0  9996,2 51969  53.2153 252.1554 0001948  46.5249  49.0175 15.08852891  1304,6917.840999999999,95.437,541.054,538.3580000000002,0.0
51969.0,STARLINK-3680,PAYLOAD,2022-07-16 06:00:00,15.08868445,0.0002032,53.2153,250.659,49.6231,57.5263,-0.002785,-0.00044374,0.0,0 STARLINK-3680,1 51969U 22025P   22197.25001157 -.00044374  00000-0 -27850-2 0  9991,2 51969  53.2153 250.6590 0002032  49.6231  57.5263 15.08868445 21167,6917.793000000002,95.436,541.064,538.253,0.0
51969.0,STARLINK-3680,PAYLOAD,2022-07-16 14:00:01,15.08819178,0.0002191,53.2152,249.164,44.8391,73.9265,0.0030614,0.00048744,0.0,0 STARLINK-3680,1 51969U 22025P   22197.58334491  .00048744  00000-0  30614-2 0  9992,2 51969  53.2152 249.1640 0002191  44.8391  73.9265 15.08819178  1302,6917.944,95.439,541.325,538.293,0.0
51969.0,STARLINK-3680,PAYLOAD,2022-07-16 22:00:00,15.08840121,0.0001968,53.2154,247.6658,47.8254,82.5425,-0.00098449,-0.00015923,0.0,0 STARLINK-3680,1 51969U 22025P   22197.91667824 -.00015923  00000-0 -98449-3 0  9994,2 51969  53.2154 247.6658 0001968  47.8254  82.5425 15.08840121 21261,6917.88,95.438,541.106,538.384,0.0
51969.0,STARLINK-3680,PAYLOAD,2022-07-17 14:00:01,15.08815185,0.0002125,53.2153,244.6747,43.1903,110.3581,0.0031959,0.00050908,0.0,0 STARLINK-3680,1 51969U 22025P   22198.58334491  .00050908  00000-0  31959-2 0  9991,2 51969  53.2153 244.6747 0002125  43.1903 110.3581 15.08815185  1300,6917.956,95.439,541.2909999999998,538.351,0.0
51969.0,STARLINK-3680,PAYLOAD,2022-07-17 22:00:00,15.08847031,0.0001956,53.2163,243.1802,45.8691,119.2689,-0.0040299,-0.00063869,0.0,0 STARLINK-3680,1 51969U 22025P   22198.91667824 -.00063869  00000-0 -40299-2 0  9996,2 51969  53.2163 243.1802 0001956  45.8691 119.2689 15.08847031  1303,6917.859,95.437,541.077,538.371,0.0
51969.0,STARLINK-3680,PAYLOAD,2022-07-18 14:00:01,15.08800249,0.0002038,53.2152,240.1851,41.8878,146.3943,0.0028436,0.0004521,0.0,0 STARLINK-3680,1 51969U 22025P   22199.58334491  .00045210  00000-0  28436-2 0  9998,2 51969  53.2152 240.1851 0002038  41.8878 146.3943 15.08800249  1301,6918.002,95.44,541.2769999999998,538.457,0.0
